{"type":"FeatureCollection","features":[{"type":"Feature","id":31085,"geometry":{"type":"Point","coordinates":[-0.35895674230754865,39.459053373521712]},"properties":{"gid":31085,"descripcion":"WiFi4EU_Museu Faller","tipo":2}},{"type":"Feature","id":31086,"geometry":{"type":"Point","coordinates":[-0.35217308336716968,39.461680261482286]},"properties":{"gid":31086,"descripcion":"WiFi4EU_Conservatori Jose Iturbi","tipo":2}},{"type":"Feature","id":31088,"geometry":{"type":"Point","coordinates":[-0.3709385742862425,39.495246088397415]},"properties":{"gid":31088,"descripcion":"BIBLIOTECA MUNICIPAL JOSEP MARIA BAYARRI","tipo":2}},{"type":"Feature","id":31089,"geometry":{"type":"Point","coordinates":[-0.36141220043681732,39.465469655693077]},"properties":{"gid":31089,"descripcion":"WiFi4EU_Palau de la Música","tipo":2}},{"type":"Feature","id":31128,"geometry":{"type":"Point","coordinates":[-0.40229177348610667,39.453715320692446]},"properties":{"gid":31128,"descripcion":"WiFi4EU_PLV Patraix","tipo":2}},{"type":"Feature","id":31382,"geometry":{"type":"Point","coordinates":[-0.32401169991357404,39.474635892921398]},"properties":{"gid":31382,"descripcion":"WiFi4EU_Paseu Marítim","tipo":2}},{"type":"Feature","id":31077,"geometry":{"type":"Point","coordinates":[-0.40610458428300561,39.478934051006959]},"properties":{"gid":31077,"descripcion":"Centre Municipal de Joventut Campanar","tipo":2}},{"type":"Feature","id":31091,"geometry":{"type":"Point","coordinates":[-0.40973044196510633,39.481423539067201]},"properties":{"gid":31091,"descripcion":"WiFi4EU_PLV Molí del Sol","tipo":2}},{"type":"Feature","id":31090,"geometry":{"type":"Point","coordinates":[-0.3801026670250448,39.47704355671997]},"properties":{"gid":31090,"descripcion":"WiFi4EU_PLV Ciutat Vella","tipo":2}},{"type":"Feature","id":31400,"geometry":{"type":"Point","coordinates":[-0.32424773438935522,39.480432808600916]},"properties":{"gid":31400,"descripcion":"WiFi4EU_Paseu Marítim","tipo":4}},{"type":"Feature","id":31401,"geometry":{"type":"Point","coordinates":[-0.32439793748403734,39.482503018607368]},"properties":{"gid":31401,"descripcion":"WiFi4EU_Paseu Marítim","tipo":4}},{"type":"Feature","id":31387,"geometry":{"type":"Point","coordinates":[-0.32439793720431187,39.483579503431507]},"properties":{"gid":31387,"descripcion":"WiFi4EU_Paseu Marítim","tipo":4}},{"type":"Feature","id":32310,"geometry":{"type":"Point","coordinates":[-0.33452586180956945,39.453588728532623]},"properties":{"gid":32310,"descripcion":"WiFi4EU_Avifauna","tipo":2}},{"type":"Feature","id":31383,"geometry":{"type":"Point","coordinates":[-0.32407607220290474,39.475546868417688]},"properties":{"gid":31383,"descripcion":"WiFi4EU_Paseu Marítim","tipo":4}},{"type":"Feature","id":31398,"geometry":{"type":"Point","coordinates":[-0.32411898734692773,39.476457832546053]},"properties":{"gid":31398,"descripcion":"WiFi4EU_Paseu Marítim","tipo":4}},{"type":"Feature","id":31991,"geometry":{"type":"Point","coordinates":[-0.39425329183003827,39.462706401752612]},"properties":{"gid":31991,"descripcion":"Centre Municipal Activitats de Persones Majors Patraix","tipo":2}},{"type":"Feature","id":31384,"geometry":{"type":"Point","coordinates":[-0.32414044512799284,39.477451597929999]},"properties":{"gid":31384,"descripcion":"WiFi4EU_Paseu Marítim","tipo":4}},{"type":"Feature","id":31399,"geometry":{"type":"Point","coordinates":[-0.32418336068246251,39.478362536607563]},"properties":{"gid":31399,"descripcion":"WiFi4EU_Paseu Marítim","tipo":4}},{"type":"Feature","id":31138,"geometry":{"type":"Point","coordinates":[-0.36845365484746323,39.450339311338652]},"properties":{"gid":31138,"descripcion":"WiFi4EU_PLV Russafa","tipo":2}},{"type":"Feature","id":31385,"geometry":{"type":"Point","coordinates":[-0.3241833611316276,39.479356275185012]},"properties":{"gid":31385,"descripcion":"WiFi4EU_Paseu Marítim","tipo":4}},{"type":"Feature","id":31154,"geometry":{"type":"Point","coordinates":[-0.35892647026282365,39.486075312106401]},"properties":{"gid":31154,"descripcion":"WiFi4EU_Centre Municipal de Serveis Socials Benimaclet","tipo":2}},{"type":"Feature","id":31386,"geometry":{"type":"Point","coordinates":[-0.32435502178150211,39.481492763928074]},"properties":{"gid":31386,"descripcion":"WiFi4EU_Paseu Marítim","tipo":4}},{"type":"Feature","id":31167,"geometry":{"type":"Point","coordinates":[-0.3293943371126391,39.479750088692725]},"properties":{"gid":31167,"descripcion":"WiFi4EU_Centre Municipal de Serveis Socials Malvarrosa","tipo":2}},{"type":"Feature","id":31402,"geometry":{"type":"Point","coordinates":[-0.32384003840079084,39.473807722147612]},"properties":{"gid":31402,"descripcion":"WiFi4EU_Paseu Marítim","tipo":4}},{"type":"Feature","id":31403,"geometry":{"type":"Point","coordinates":[-0.32364691865919493,39.472847032273464]},"properties":{"gid":31403,"descripcion":"WiFi4EU_Paseu Marítim","tipo":4}},{"type":"Feature","id":31405,"geometry":{"type":"Point","coordinates":[-0.3236469193373579,39.47177038116709]},"properties":{"gid":31405,"descripcion":"WiFi4EU_Paseu Marítim","tipo":4}},{"type":"Feature","id":31369,"geometry":{"type":"Point","coordinates":[-0.3896979435987421,39.442689152598128]},"properties":{"gid":31369,"descripcion":"WiFi4EU_Centre Municipal de Serveis Socials Sant Marceli","tipo":2}},{"type":"Feature","id":31033,"geometry":{"type":"Point","coordinates":[-0.39880644871138249,39.470697111929042]},"properties":{"gid":31033,"descripcion":"WiFi4EU_Centre Municipal de Servicis Socials Olivereta","tipo":2}},{"type":"Feature","id":31050,"geometry":{"type":"Point","coordinates":[-0.39708842510791081,39.48038056061651]},"properties":{"gid":31050,"descripcion":"WiFi4EU_Centre Municipal de Servicis Socials Campanar","tipo":2}},{"type":"Feature","id":32311,"geometry":{"type":"Point","coordinates":[-0.37381315068213083,39.476548276315086]},"properties":{"gid":32311,"descripcion":"WiFi4EU_Almodí","tipo":2}},{"type":"Feature","id":31030,"geometry":{"type":"Point","coordinates":[-0.32351878285668412,39.469458479087969]},"properties":{"gid":31030,"descripcion":"WiFi4EU_Paseu Marítim","tipo":4}},{"type":"Feature","id":31032,"geometry":{"type":"Point","coordinates":[-0.38416389212087459,39.47672833499437]},"properties":{"gid":31032,"descripcion":"WiFi4EU_Guillem de Castro","tipo":2}},{"type":"Feature","id":31034,"geometry":{"type":"Point","coordinates":[-0.36345467674348098,39.455046368657719]},"properties":{"gid":31034,"descripcion":"WiFi4EU_Centre Municipal de Servicis Socials Quatre Carreres","tipo":2}},{"type":"Feature","id":31035,"geometry":{"type":"Point","coordinates":[-0.37517972220902446,39.448969164370702]},"properties":{"gid":31035,"descripcion":"WiFi4EU_Parc Malilla","tipo":4}},{"type":"Feature","id":31036,"geometry":{"type":"Point","coordinates":[-0.3582877456751587,39.460626159898958]},"properties":{"gid":31036,"descripcion":"WiFi4EU_Riu Turia","tipo":2}},{"type":"Feature","id":31037,"geometry":{"type":"Point","coordinates":[-0.36131027596092957,39.474083177090819]},"properties":{"gid":31037,"descripcion":"WiFi4EU_Tabaquera","tipo":2}},{"type":"Feature","id":31038,"geometry":{"type":"Point","coordinates":[-0.3395706202959905,39.459931820857072]},"properties":{"gid":31038,"descripcion":"WiFi4EU_Centre Municipal de Joventut Grau Port","tipo":2}},{"type":"Feature","id":31039,"geometry":{"type":"Point","coordinates":[-0.37747326752568311,39.469888359176416]},"properties":{"gid":31039,"descripcion":"WiFi4EU_Ajuntament","tipo":2}},{"type":"Feature","id":31040,"geometry":{"type":"Point","coordinates":[-0.37075508371476312,39.460898152408049]},"properties":{"gid":31040,"descripcion":"BIBLIOTECA MUNICIPAL NOVA AL-RUSSAFÍ","tipo":2}},{"type":"Feature","id":31041,"geometry":{"type":"Point","coordinates":[-0.40210964554705336,39.464623461273632]},"properties":{"gid":31041,"descripcion":"BIBLIOTECA MUSICAL COMPOSITORS VALENCIANS","tipo":2}},{"type":"Feature","id":31042,"geometry":{"type":"Point","coordinates":[-0.41834469067011032,39.501002089049599]},"properties":{"gid":31042,"descripcion":"Espai Obert Benimàmet-Beniferri","tipo":2}},{"type":"Feature","id":31044,"geometry":{"type":"Point","coordinates":[-0.32707456030257614,39.472571747148081]},"properties":{"gid":31044,"descripcion":"WiFi4EU_Parc Dr Lluch","tipo":2}},{"type":"Feature","id":31045,"geometry":{"type":"Point","coordinates":[-0.40304941844242137,39.465662462126694]},"properties":{"gid":31045,"descripcion":"WiFi4EU_Mercat Castilla","tipo":2}},{"type":"Feature","id":31046,"geometry":{"type":"Point","coordinates":[-0.35810476575018457,39.488092125640897]},"properties":{"gid":31046,"descripcion":"BIBLIOTECA MUNICIPAL CAROLA REIG","tipo":2}},{"type":"Feature","id":31048,"geometry":{"type":"Point","coordinates":[-0.37807125590936097,39.517290172076748]},"properties":{"gid":31048,"descripcion":"WiFi4EU_Alcaldía Carpesa","tipo":2}},{"type":"Feature","id":31049,"geometry":{"type":"Point","coordinates":[-0.40364817604684411,39.451882348965057]},"properties":{"gid":31049,"descripcion":"Centre Municipal de Joventut Sant Isidre","tipo":2}},{"type":"Feature","id":31053,"geometry":{"type":"Point","coordinates":[-0.37606070230321004,39.432526950188475]},"properties":{"gid":31053,"descripcion":"WiFi4EU_Alcaldía El Forn d'Alcedo","tipo":2}},{"type":"Feature","id":31054,"geometry":{"type":"Point","coordinates":[-0.37647550761311316,39.485255959938378]},"properties":{"gid":31054,"descripcion":"WiFi4EU_Museu Concha Piquer","tipo":2}},{"type":"Feature","id":31055,"geometry":{"type":"Point","coordinates":[-0.4039284818217822,39.539588169655843]},"properties":{"gid":31055,"descripcion":"WiFi4EU_Alcaldía Massarrojos","tipo":2}},{"type":"Feature","id":31056,"geometry":{"type":"Point","coordinates":[-0.34740557099567598,39.465062495626206]},"properties":{"gid":31056,"descripcion":"BIBLIOTECA MUNICIPAL VICENT CASP I VERGER","tipo":2}},{"type":"Feature","id":31057,"geometry":{"type":"Point","coordinates":[-0.37589076420647832,39.469565352013099]},"properties":{"gid":31057,"descripcion":"WiFi4EU_Plaça de l'Ajuntament","tipo":2}},{"type":"Feature","id":31058,"geometry":{"type":"Point","coordinates":[-0.38821201445415376,39.468072199809328]},"properties":{"gid":31058,"descripcion":"WiFi4EU_Junta Municipal Abastos","tipo":2}},{"type":"Feature","id":31059,"geometry":{"type":"Point","coordinates":[-0.34861873595649501,39.465477943405432]},"properties":{"gid":31059,"descripcion":"CENTRE OCUPACIÓ I FORMACIÓ \"ELS LLEONS\"","tipo":2}},{"type":"Feature","id":31060,"geometry":{"type":"Point","coordinates":[-0.36017602122398018,39.46382344824891]},"properties":{"gid":31060,"descripcion":"WiFi4EU_Riu Turia","tipo":2}},{"type":"Feature","id":31061,"geometry":{"type":"Point","coordinates":[-0.32677870002546328,39.462025759336122]},"properties":{"gid":31061,"descripcion":"WiFi4EU_CEMAS","tipo":2}},{"type":"Feature","id":31094,"geometry":{"type":"Point","coordinates":[-0.39533141505758573,39.466460887543313]},"properties":{"gid":31094,"descripcion":"WiFi4EU_Parc de l'Oest","tipo":2}},{"type":"Feature","id":31100,"geometry":{"type":"Point","coordinates":[-0.37604633258668152,39.47045568889834]},"properties":{"gid":31100,"descripcion":"WiFi4EU_Plaça de l'Ajuntament","tipo":2}},{"type":"Feature","id":31101,"geometry":{"type":"Point","coordinates":[-0.33189621276926151,39.38231817992839]},"properties":{"gid":31101,"descripcion":"WiFi4EU_Alcaldía El Saler","tipo":2}},{"type":"Feature","id":31103,"geometry":{"type":"Point","coordinates":[-0.38121169490045992,39.486491277760635]},"properties":{"gid":31103,"descripcion":"BIBLIOTECA MUNICIPAL JOANOT MARTORELL","tipo":2}},{"type":"Feature","id":31106,"geometry":{"type":"Point","coordinates":[-0.34088144037100843,39.42433903082361]},"properties":{"gid":31106,"descripcion":"WiFi4EU_Exterior Pinedo","tipo":2}},{"type":"Feature","id":31107,"geometry":{"type":"Point","coordinates":[-0.39815451638513877,39.467686085849685]},"properties":{"gid":31107,"descripcion":"Central Policia Local de València","tipo":2}},{"type":"Feature","id":31108,"geometry":{"type":"Point","coordinates":[-0.37891226468365341,39.480837750446234]},"properties":{"gid":31108,"descripcion":"WiFi4EU_Museu Benlliure","tipo":4}},{"type":"Feature","id":31109,"geometry":{"type":"Point","coordinates":[-0.40660132090267331,39.458823736097393]},"properties":{"gid":31109,"descripcion":"WiFi4EU_Almacén Vara de Quart","tipo":2}},{"type":"Feature","id":31110,"geometry":{"type":"Point","coordinates":[-0.3530735311395814,39.458339924802893]},"properties":{"gid":31110,"descripcion":"WiFi4EU_Riu Turia","tipo":2}},{"type":"Feature","id":31111,"geometry":{"type":"Point","coordinates":[-0.33065864477324314,39.462808129675359]},"properties":{"gid":31111,"descripcion":"WiFi4EU_Junta Municipal Marítim","tipo":2}},{"type":"Feature","id":31112,"geometry":{"type":"Point","coordinates":[-0.33218934351878693,39.449380343872946]},"properties":{"gid":31112,"descripcion":"BIBLIOTECA MUNICIPAL DEL MAR","tipo":2}},{"type":"Feature","id":31113,"geometry":{"type":"Point","coordinates":[-0.37810679100927669,39.517051173958144]},"properties":{"gid":31113,"descripcion":"WiFi4EU_Plaça Carpesa","tipo":2}},{"type":"Feature","id":31114,"geometry":{"type":"Point","coordinates":[-0.36062899546316107,39.465776116546436]},"properties":{"gid":31114,"descripcion":"WiFi4EU_Palau de la Música","tipo":2}},{"type":"Feature","id":31115,"geometry":{"type":"Point","coordinates":[-0.37691000336163089,39.469975322751779]},"properties":{"gid":31115,"descripcion":"WiFi4EU_Plaça de l'Ajuntament","tipo":2}},{"type":"Feature","id":31116,"geometry":{"type":"Point","coordinates":[-0.35861027949420676,39.493076780146687]},"properties":{"gid":31116,"descripcion":"WiFi4EU_OPPE Emili Baro","tipo":2}},{"type":"Feature","id":31117,"geometry":{"type":"Point","coordinates":[-0.41860277569153315,39.497521593818718]},"properties":{"gid":31117,"descripcion":"WiFi4EU_Plaça Ximeno","tipo":2}},{"type":"Feature","id":31118,"geometry":{"type":"Point","coordinates":[-0.36929824505328684,39.460985253907374]},"properties":{"gid":31118,"descripcion":"BIBLIOTECA MUNICIPAL AL-RUSAFI","tipo":2}},{"type":"Feature","id":31119,"geometry":{"type":"Point","coordinates":[-0.37025938828253774,39.474213878258901]},"properties":{"gid":31119,"descripcion":"WiFi4EU_Museu del Palau de Cervelló","tipo":4}},{"type":"Feature","id":31120,"geometry":{"type":"Point","coordinates":[-0.39321111357130928,39.434429231723591]},"properties":{"gid":31120,"descripcion":"WiFi4EU_Alcaldía La Torre","tipo":2}},{"type":"Feature","id":31121,"geometry":{"type":"Point","coordinates":[-0.37057459101498563,39.472289512744965]},"properties":{"gid":31121,"descripcion":"Plaça Alfons el Magnànim","tipo":2}},{"type":"Feature","id":31122,"geometry":{"type":"Point","coordinates":[-0.37652138374145011,39.43258764657898]},"properties":{"gid":31122,"descripcion":"WiFi4EU_Plaça Forn d'Alcedo","tipo":2}},{"type":"Feature","id":31123,"geometry":{"type":"Point","coordinates":[-0.38493291695209358,39.49323559030988]},"properties":{"gid":31123,"descripcion":"WiFi4EU_Policia Local Transits","tipo":2}},{"type":"Feature","id":31124,"geometry":{"type":"Point","coordinates":[-0.37362682337151726,39.475301278859689]},"properties":{"gid":31124,"descripcion":"FONOTECA MUNICIPAL","tipo":2}},{"type":"Feature","id":31125,"geometry":{"type":"Point","coordinates":[-0.37536358573463424,39.476381581901506]},"properties":{"gid":31125,"descripcion":"WiFi4EU_Plaça de la Verge","tipo":4}},{"type":"Feature","id":31157,"geometry":{"type":"Point","coordinates":[-0.32905095921007527,39.467474659215526]},"properties":{"gid":31157,"descripcion":"BIBLIOTECA MUNICIPAL CASA DE LA REINA","tipo":2}},{"type":"Feature","id":31126,"geometry":{"type":"Point","coordinates":[-0.40348053624918506,39.465772662504278]},"properties":{"gid":31126,"descripcion":"BIBLIOTECA MUNICIPAL LLUÍS FULLANA I MIRA","tipo":2}},{"type":"Feature","id":31127,"geometry":{"type":"Point","coordinates":[-0.39594295896729426,39.466092309675631]},"properties":{"gid":31127,"descripcion":"WiFi4EU_Parc de l'Oest","tipo":2}},{"type":"Feature","id":31130,"geometry":{"type":"Point","coordinates":[-0.33548241947136714,39.443101502273905]},"properties":{"gid":31130,"descripcion":"WiFi4EU_Xalet Dr. Bartual","tipo":2}},{"type":"Feature","id":31131,"geometry":{"type":"Point","coordinates":[-0.41863195318045426,39.497698646479243]},"properties":{"gid":31131,"descripcion":"WiFi4EU_Alcaldía Benimàmet-Beniferri","tipo":2}},{"type":"Feature","id":31133,"geometry":{"type":"Point","coordinates":[-0.37050109781147239,39.472470356117185]},"properties":{"gid":31133,"descripcion":"Junta Municipal Ciutat Vella","tipo":2}},{"type":"Feature","id":31135,"geometry":{"type":"Point","coordinates":[-0.33859129097423563,39.458470946183901]},"properties":{"gid":31135,"descripcion":"Nave 3","tipo":2}},{"type":"Feature","id":31136,"geometry":{"type":"Point","coordinates":[-0.37804757745786066,39.488278399411641]},"properties":{"gid":31136,"descripcion":"WiFi4EU_Centre Municipal de Servicis Socials La Saïdia","tipo":2}},{"type":"Feature","id":31137,"geometry":{"type":"Point","coordinates":[-0.37672015965676336,39.479116474430469]},"properties":{"gid":31137,"descripcion":"WiFi4EU_Museu Casa de les Roques","tipo":4}},{"type":"Feature","id":31139,"geometry":{"type":"Point","coordinates":[-0.40070262938380519,39.480265289796776]},"properties":{"gid":31139,"descripcion":"BIBLIOTECA MUNICIPAL FRANCESC ALMELA I VIVES","tipo":2}},{"type":"Feature","id":31140,"geometry":{"type":"Point","coordinates":[-0.3495115578948163,39.456119886834834]},"properties":{"gid":31140,"descripcion":"WiFi4EU_Riu Turia","tipo":2}},{"type":"Feature","id":31141,"geometry":{"type":"Point","coordinates":[-0.38006435296689933,39.471278962409571]},"properties":{"gid":31141,"descripcion":"WiFi4EU_Hospital","tipo":2}},{"type":"Feature","id":31143,"geometry":{"type":"Point","coordinates":[-0.37795846213418444,39.469947522580796]},"properties":{"gid":31143,"descripcion":"WiFi4EU_Arquebisbe Mayoral","tipo":2}},{"type":"Feature","id":31144,"geometry":{"type":"Point","coordinates":[-0.39533141564871177,39.466651387335006]},"properties":{"gid":31144,"descripcion":"WiFi4EU_Parc de l'Oest","tipo":2}},{"type":"Feature","id":31146,"geometry":{"type":"Point","coordinates":[-0.37636819813957506,39.469263048939283]},"properties":{"gid":31146,"descripcion":"WiFi4EU_Plaça de l'Ajuntament","tipo":2}},{"type":"Feature","id":31147,"geometry":{"type":"Point","coordinates":[-0.37359956557667828,39.449543902210152]},"properties":{"gid":31147,"descripcion":"Centre Municipal de Joventut Malilla","tipo":2}},{"type":"Feature","id":31148,"geometry":{"type":"Point","coordinates":[-0.3883358014303111,39.468328504246294]},"properties":{"gid":31148,"descripcion":"WiFi4EU_PLV Abastos","tipo":2}},{"type":"Feature","id":31152,"geometry":{"type":"Point","coordinates":[-0.36036681141552895,39.46630621292892]},"properties":{"gid":31152,"descripcion":"WiFi4EU_Palau de la Música","tipo":2}},{"type":"Feature","id":31153,"geometry":{"type":"Point","coordinates":[-0.38412826217661639,39.504257275127586]},"properties":{"gid":31153,"descripcion":"WiFi4EU_Alcaldía Poble Nou","tipo":2}},{"type":"Feature","id":31155,"geometry":{"type":"Point","coordinates":[-0.39448477914121988,39.475300450223045]},"properties":{"gid":31155,"descripcion":"BIBLIOTECA MUNICIPAL DE LA PETXINA","tipo":2}},{"type":"Feature","id":31159,"geometry":{"type":"Point","coordinates":[-0.37640776884000809,39.470175698410522]},"properties":{"gid":31159,"descripcion":"WiFi4EU_Plaça de l'Ajuntament","tipo":2}},{"type":"Feature","id":31160,"geometry":{"type":"Point","coordinates":[-0.33405809354804267,39.544104404451573]},"properties":{"gid":31160,"descripcion":"WiFi4EU_Alcaldía Mahuella","tipo":2}},{"type":"Feature","id":31161,"geometry":{"type":"Point","coordinates":[-0.32353070039154513,39.470540113866463]},"properties":{"gid":31161,"descripcion":"WiFi4EU_Paseu Marítim","tipo":4}},{"type":"Feature","id":31162,"geometry":{"type":"Point","coordinates":[-0.357519784044454,39.482463679959089]},"properties":{"gid":31162,"descripcion":"WiFi4EU_Junta Municipal Exposició","tipo":2}},{"type":"Feature","id":31164,"geometry":{"type":"Point","coordinates":[-0.34907879523948698,39.476254977804452]},"properties":{"gid":31164,"descripcion":"BIBLIOTECA PÚBLICA MUNICIPAL MARÍA MOLINER","tipo":2}},{"type":"Feature","id":31166,"geometry":{"type":"Point","coordinates":[-0.40581144371101013,39.494852125435855]},"properties":{"gid":31166,"descripcion":"BIBLIOTECA MUNICIPAL JOAN DE TIMONEDA","tipo":2}},{"type":"Feature","id":31169,"geometry":{"type":"Point","coordinates":[-0.37736221770354689,39.448722386842753]},"properties":{"gid":31169,"descripcion":"BIBLIOTECA MUNICIPAL ROIG DE CORELLA","tipo":2}},{"type":"Feature","id":31170,"geometry":{"type":"Point","coordinates":[-0.36099377502014146,39.466384892626188]},"properties":{"gid":31170,"descripcion":"WiFi4EU_Palau de la Música","tipo":2}},{"type":"Feature","id":31171,"geometry":{"type":"Point","coordinates":[-0.3929098905255044,39.43427997481804]},"properties":{"gid":31171,"descripcion":"BIBLIOTECA MUNICIPAL JOAN CHURAT I SAURÍ","tipo":2}},{"type":"Feature","id":31172,"geometry":{"type":"Point","coordinates":[-0.40929314087615165,39.465950769579244]},"properties":{"gid":31172,"descripcion":"BIBLIOTECA MUNICIPAL VICENT BOIX I RECARTE","tipo":2}},{"type":"Feature","id":31175,"geometry":{"type":"Point","coordinates":[-0.32777040478890168,39.360858206132477]},"properties":{"gid":31175,"descripcion":"WiFi4EU_Parc de Bombers Saler","tipo":2}},{"type":"Feature","id":31176,"geometry":{"type":"Point","coordinates":[-0.32295604538833089,39.4666218609133]},"properties":{"gid":31176,"descripcion":"BIBLIOMAR \"PASSEIG MARITIM\"","tipo":2}},{"type":"Feature","id":31177,"geometry":{"type":"Point","coordinates":[-0.40598103003577318,39.483004042269314]},"properties":{"gid":31177,"descripcion":"WiFi4EU_Parc de Bombers Campanar","tipo":2}},{"type":"Feature","id":31178,"geometry":{"type":"Point","coordinates":[-0.37655058775680555,39.469838665727522]},"properties":{"gid":31178,"descripcion":"WiFi4EU_Plaça de l'Ajuntament","tipo":2}},{"type":"Feature","id":31179,"geometry":{"type":"Point","coordinates":[-0.39507928719106888,39.466154428990144]},"properties":{"gid":31179,"descripcion":"WiFi4EU_Parc de l'Oest","tipo":2}},{"type":"Feature","id":31180,"geometry":{"type":"Point","coordinates":[-0.34552043149238498,39.454595639918537]},"properties":{"gid":31180,"descripcion":"WiFi4EU_Riu Turia","tipo":2}},{"type":"Feature","id":31181,"geometry":{"type":"Point","coordinates":[-0.37412098648216247,39.476175074632636]},"properties":{"gid":31181,"descripcion":"WiFi4EU_Almoina","tipo":2}},{"type":"Feature","id":31183,"geometry":{"type":"Point","coordinates":[-0.36192471145672367,39.428065260786497]},"properties":{"gid":31183,"descripcion":"WiFi4EU_Exterior Castellar-l'Oliveral","tipo":2}},{"type":"Feature","id":31184,"geometry":{"type":"Point","coordinates":[-0.32328191663167871,39.468505215532403]},"properties":{"gid":31184,"descripcion":"WiFi4EU_Posta Sanitaria","tipo":2}},{"type":"Feature","id":31186,"geometry":{"type":"Point","coordinates":[-0.34016828723796688,39.469190319915292]},"properties":{"gid":31186,"descripcion":"WiFi4EU_Centre Municipal de Joventut Algirós","tipo":2}},{"type":"Feature","id":31187,"geometry":{"type":"Point","coordinates":[-0.33198281078897812,39.382398239402796]},"properties":{"gid":31187,"descripcion":"WiFi4EU_Exterior Saler","tipo":2}},{"type":"Feature","id":31188,"geometry":{"type":"Point","coordinates":[-0.37021513973628928,39.474267847617597]},"properties":{"gid":31188,"descripcion":"BIBLIOTECA MUNICIPAL SERRANO MORALES","tipo":2}},{"type":"Feature","id":31062,"geometry":{"type":"Point","coordinates":[-0.36735789048222256,39.454344476952379]},"properties":{"gid":31062,"descripcion":"WiFi4EU_Parc de Bombers Central","tipo":2}},{"type":"Feature","id":31063,"geometry":{"type":"Point","coordinates":[-0.36630538088738213,39.4550541205627]},"properties":{"gid":31063,"descripcion":"CENTRE MUNICIPAL DE JOVENTUT TALEIA","tipo":4}},{"type":"Feature","id":31064,"geometry":{"type":"Point","coordinates":[-0.35921125999645043,39.486301025421589]},"properties":{"gid":31064,"descripcion":"WiFi4EU_Plaça Benimaclet","tipo":4}},{"type":"Feature","id":31065,"geometry":{"type":"Point","coordinates":[-0.38600704913529627,39.460491721846296]},"properties":{"gid":31065,"descripcion":"BIBLIOTECA MUNICIPAL GERMANA DE FOIX","tipo":2}},{"type":"Feature","id":31066,"geometry":{"type":"Point","coordinates":[-0.39363829153945989,39.434463240128153]},"properties":{"gid":31066,"descripcion":"WiFi4EU_Parc La Torre","tipo":2}},{"type":"Feature","id":31067,"geometry":{"type":"Point","coordinates":[-0.38561734744058784,39.528725361885492]},"properties":{"gid":31067,"descripcion":"WiFi4EU_Plaça Benifaraig","tipo":2}},{"type":"Feature","id":31068,"geometry":{"type":"Point","coordinates":[-0.39611462050451762,39.466560278275473]},"properties":{"gid":31068,"descripcion":"WiFi4EU_Parc de l'Oest","tipo":2}},{"type":"Feature","id":31069,"geometry":{"type":"Point","coordinates":[-0.36875188302200812,39.479286002833312]},"properties":{"gid":31069,"descripcion":"WiFi4EU_Museu de Ciències Naturals","tipo":2}},{"type":"Feature","id":31071,"geometry":{"type":"Point","coordinates":[-0.39282530039036245,39.460358963831773]},"properties":{"gid":31071,"descripcion":"BIBLIOTECA MUNICIPAL AZORÍN","tipo":2}},{"type":"Feature","id":31072,"geometry":{"type":"Point","coordinates":[-0.40280620911187592,39.463746316899538]},"properties":{"gid":31072,"descripcion":"BIBLIOTECA MUNICIPAL CENTRAL","tipo":2}},{"type":"Feature","id":31073,"geometry":{"type":"Point","coordinates":[-0.36178770890145823,39.46618610898522]},"properties":{"gid":31073,"descripcion":"WiFi4EU_Palau de la Música","tipo":2}},{"type":"Feature","id":31074,"geometry":{"type":"Point","coordinates":[-0.39325532501496996,39.475701814682722]},"properties":{"gid":31074,"descripcion":"OFICINES COMPLEX ESPORTIU-CULTURAL DE LA PETXINA","tipo":2}},{"type":"Feature","id":31075,"geometry":{"type":"Point","coordinates":[-0.40825198607805507,39.472540269305711]},"properties":{"gid":31075,"descripcion":"MUSEU HISTÒRIA DE VALÈNCIA","tipo":2}},{"type":"Feature","id":31076,"geometry":{"type":"Point","coordinates":[-0.40376381965806651,39.467093322502535]},"properties":{"gid":31076,"descripcion":"WiFi4EU_Parc de Bombers Oest","tipo":2}},{"type":"Feature","id":31078,"geometry":{"type":"Point","coordinates":[-0.33284939078049008,39.447962814770527]},"properties":{"gid":31078,"descripcion":"CENTRE MUNICIPAL DE JOVENTUT NATZARET","tipo":2}},{"type":"Feature","id":31079,"geometry":{"type":"Point","coordinates":[-0.38861788020830101,39.467618567337418]},"properties":{"gid":31079,"descripcion":"BIBLIOTECA MUNICIPAL EDUARD ESCALANTE","tipo":2}},{"type":"Feature","id":31080,"geometry":{"type":"Point","coordinates":[-0.37740856096543463,39.470490519983301]},"properties":{"gid":31080,"descripcion":"WiFi4EU_La Sang","tipo":2}},{"type":"Feature","id":31081,"geometry":{"type":"Point","coordinates":[-0.37541493296388656,39.475999606848333]},"properties":{"gid":31081,"descripcion":"BIBLIOTECA MUNICIPAL CARLES ROS","tipo":2}},{"type":"Feature","id":31082,"geometry":{"type":"Point","coordinates":[-0.37780469140927986,39.469376817509946]},"properties":{"gid":31082,"descripcion":"WiFi4EU_Convent San Francisco","tipo":2}},{"type":"Feature","id":32951,"geometry":{"type":"Point","coordinates":[-0.34740717049208503,39.477655744244053]},"properties":{"gid":32951,"descripcion":"C.M.A.P.M. \"SAN JOSÉ\"","tipo":2}},{"type":"Feature","id":32972,"geometry":{"type":"Point","coordinates":[-0.38103936182938614,39.482067463263057]},"properties":{"gid":32972,"descripcion":"WiFi4EU_Riu Turia","tipo":2}},{"type":"Feature","id":32973,"geometry":{"type":"Point","coordinates":[-0.3859317116176304,39.480262232858593]},"properties":{"gid":32973,"descripcion":"WiFi4EU_Riu Turia","tipo":2}},{"type":"Feature","id":32982,"geometry":{"type":"Point","coordinates":[-0.33223823548296993,39.471052274982334]},"properties":{"gid":32982,"descripcion":"CENTRE INSERCIÓ MENORS CABANYAL","tipo":2}},{"type":"Feature","id":32983,"geometry":{"type":"Point","coordinates":[-0.33235003438689498,39.469520741220386]},"properties":{"gid":32983,"descripcion":"OFICINA ATENCIÓ I INFORMACIÓ A FAMÍLIES EN VULNERABILITAT DEL CABANYAL","tipo":2}},{"type":"Feature","id":32984,"geometry":{"type":"Point","coordinates":[-0.33920180762446989,39.460005875126186]},"properties":{"gid":32984,"descripcion":"C.M.A.P.M. \"GRAU-PORT\"","tipo":2}},{"type":"Feature","id":32985,"geometry":{"type":"Point","coordinates":[-0.33515254739468386,39.446984204948166]},"properties":{"gid":32985,"descripcion":"ESCOLA INFANTIL \"GENT MENUDA\"","tipo":2}},{"type":"Feature","id":32986,"geometry":{"type":"Point","coordinates":[-0.35073070614418822,39.472468206215424]},"properties":{"gid":32986,"descripcion":"C.M.A.P.M \"LA AMISTAD\"","tipo":2}},{"type":"Feature","id":33638,"geometry":{"type":"Point","coordinates":[-0.38994023481224377,39.442853623204648]},"properties":{"gid":33638,"descripcion":"CMAPM Sant Marcel·lí","tipo":2}},{"type":"Feature","id":34598,"geometry":{"type":"Point","coordinates":[-0.37822640581562067,39.45959893291446]},"properties":{"gid":34598,"descripcion":"WiFi4EU_Parc Central","tipo":2}},{"type":"Feature","id":34599,"geometry":{"type":"Point","coordinates":[-0.37892378115428682,39.460029669998377]},"properties":{"gid":34599,"descripcion":"WiFi4EU_Parc Central","tipo":2}},{"type":"Feature","id":34600,"geometry":{"type":"Point","coordinates":[-0.37952459503738373,39.459193042263827]},"properties":{"gid":34600,"descripcion":"WiFi4EU_Parc Central","tipo":2}},{"type":"Feature","id":34601,"geometry":{"type":"Point","coordinates":[-0.37854827182787054,39.458671180296363]},"properties":{"gid":34601,"descripcion":"WiFi4EU_Parc Central","tipo":2}},{"type":"Feature","id":34602,"geometry":{"type":"Point","coordinates":[-0.37774360891752001,39.458704314784242]},"properties":{"gid":34602,"descripcion":"WiFi4EU_Parc Central","tipo":2}},{"type":"Feature","id":34603,"geometry":{"type":"Point","coordinates":[-0.37977135822499197,39.457851104089485]},"properties":{"gid":34603,"descripcion":"WiFi4EU_Parc Central","tipo":2}},{"type":"Feature","id":34604,"geometry":{"type":"Point","coordinates":[-0.37889159371934944,39.458033343905143]},"properties":{"gid":34604,"descripcion":"WiFi4EU_Parc Central","tipo":2}},{"type":"Feature","id":34605,"geometry":{"type":"Point","coordinates":[-0.37807620321586549,39.458182448949771]},"properties":{"gid":34605,"descripcion":"WiFi4EU_Parc Central","tipo":2}},{"type":"Feature","id":34606,"geometry":{"type":"Point","coordinates":[-0.37744320098629847,39.457942223909207]},"properties":{"gid":34606,"descripcion":"WiFi4EU_Parc Central","tipo":2}},{"type":"Feature","id":34607,"geometry":{"type":"Point","coordinates":[-0.37936366331543164,39.457403785098634]},"properties":{"gid":34607,"descripcion":"WiFi4EU_Parc Central","tipo":2}},{"type":"Feature","id":34608,"geometry":{"type":"Point","coordinates":[-0.37849462683200424,39.457296097111907]},"properties":{"gid":34608,"descripcion":"WiFi4EU_Parc Central","tipo":2}},{"type":"Feature","id":34609,"geometry":{"type":"Point","coordinates":[-0.37773287971720709,39.457171840955951]},"properties":{"gid":34609,"descripcion":"WiFi4EU_Parc Central","tipo":2}},{"type":"Feature","id":34610,"geometry":{"type":"Point","coordinates":[-0.38010395212689363,39.457089003911328]},"properties":{"gid":34610,"descripcion":"WiFi4EU_Parc Central","tipo":2}},{"type":"Feature","id":34611,"geometry":{"type":"Point","coordinates":[-0.37984646039509418,39.456525707358352]},"properties":{"gid":34611,"descripcion":"WiFi4EU_Parc Central","tipo":2}},{"type":"Feature","id":34612,"geometry":{"type":"Point","coordinates":[-0.37951386641435109,39.456028676745497]},"properties":{"gid":34612,"descripcion":"WiFi4EU_Parc Central","tipo":2}},{"type":"Feature","id":33000,"geometry":{"type":"Point","coordinates":[-0.33182252417389729,39.382360711646726]},"properties":{"gid":33000,"descripcion":"C.M.A.P.M. \"EL SALER\"","tipo":2}},{"type":"Feature","id":33001,"geometry":{"type":"Point","coordinates":[-0.32541889538036395,39.381684932333904]},"properties":{"gid":33001,"descripcion":"CASA FORESTAL","tipo":2}},{"type":"Feature","id":33002,"geometry":{"type":"Point","coordinates":[-0.30759258966841752,39.335072060208731]},"properties":{"gid":33002,"descripcion":"CASAL D`ESPLAI \"EL SALER\"","tipo":2}},{"type":"Feature","id":33003,"geometry":{"type":"Point","coordinates":[-0.33507232999452241,39.422577721540776]},"properties":{"gid":33003,"descripcion":"ESCOLA INFANTIL \"MUNICIPAL DE PINEDO\"","tipo":2}},{"type":"Feature","id":33004,"geometry":{"type":"Point","coordinates":[-0.37654217253812056,39.455020596132364]},"properties":{"gid":33004,"descripcion":"C.M.A.P.M. \"MALILLA\"","tipo":2}},{"type":"Feature","id":33005,"geometry":{"type":"Point","coordinates":[-0.40476437604536736,39.453028268248076]},"properties":{"gid":33005,"descripcion":"CMAPM SANT ISIDRE","tipo":2}},{"type":"Feature","id":33007,"geometry":{"type":"Point","coordinates":[-0.36558565572985474,39.454120091160171]},"properties":{"gid":33007,"descripcion":"ESCOLA INFANTIL \"QUATRE CARRERES\"","tipo":2}},{"type":"Feature","id":33008,"geometry":{"type":"Point","coordinates":[-0.3634078054916271,39.454708060100458]},"properties":{"gid":33008,"descripcion":"C.M.A.P.M. \"FUENTE SAN LUIS\"","tipo":2}},{"type":"Feature","id":33009,"geometry":{"type":"Point","coordinates":[-0.36633795434894278,39.453042983055099]},"properties":{"gid":33009,"descripcion":"CENTRE OCUPACIÓ I FORMACIÓ \"LA FONTETA\"","tipo":4}},{"type":"Feature","id":33012,"geometry":{"type":"Point","coordinates":[-0.41793984319438932,39.501614997620983]},"properties":{"gid":33012,"descripcion":"C.M.A.P.M. \"BENIMAMET\"","tipo":2}},{"type":"Feature","id":33011,"geometry":{"type":"Point","coordinates":[-0.41232992949197761,39.534604762493288]},"properties":{"gid":33011,"descripcion":"CASAL D'ESPLAI \"ROCAFORT\"","tipo":2}},{"type":"Feature","id":33013,"geometry":{"type":"Point","coordinates":[-0.39560836895086121,39.49645033157379]},"properties":{"gid":33013,"descripcion":"C.M.A.P.M. \"BENICALAPECH\"","tipo":2}},{"type":"Feature","id":33014,"geometry":{"type":"Point","coordinates":[-0.40526321671877835,39.483711836211071]},"properties":{"gid":33014,"descripcion":"CEMENTERI MUNICIPAL \"CAMPANAR\"","tipo":2}},{"type":"Feature","id":33015,"geometry":{"type":"Point","coordinates":[-0.36960906207747884,39.481237075311448]},"properties":{"gid":33015,"descripcion":"C.M.A.P.M. \"VIVERS\"","tipo":2}},{"type":"Feature","id":33016,"geometry":{"type":"Point","coordinates":[-0.37138668898947341,39.483633212556882]},"properties":{"gid":33016,"descripcion":"C.M.A.P.M. \"TRINITAT\"","tipo":2}},{"type":"Feature","id":33017,"geometry":{"type":"Point","coordinates":[-0.37194458816924331,39.48459789423336]},"properties":{"gid":33017,"descripcion":"Centre Municipal de Joventut Trinitat","tipo":2}},{"type":"Feature","id":33018,"geometry":{"type":"Point","coordinates":[-0.38061616961269717,39.487142020992081]},"properties":{"gid":33018,"descripcion":"C.M.A.P.M. \"MARXALENES\"","tipo":2}},{"type":"Feature","id":33019,"geometry":{"type":"Point","coordinates":[-0.3866975519167089,39.483998615832384]},"properties":{"gid":33019,"descripcion":"C.M.A.P.M. \"TENDETES\"","tipo":4}},{"type":"Feature","id":33020,"geometry":{"type":"Point","coordinates":[-0.37975337895420302,39.478835597599435]},"properties":{"gid":33020,"descripcion":"C.M.A.P.M. \"EL CARMEN\"","tipo":2}},{"type":"Feature","id":33021,"geometry":{"type":"Point","coordinates":[-0.39769577435668518,39.463714359685461]},"properties":{"gid":33021,"descripcion":"CENTRE DE DIA \"TRES FORQUES\"","tipo":2}},{"type":"Feature","id":33022,"geometry":{"type":"Point","coordinates":[-0.40178801501145905,39.463944581078422]},"properties":{"gid":33022,"descripcion":"ESCOLA INFANTIL \"SOLC\"","tipo":2}},{"type":"Feature","id":33023,"geometry":{"type":"Point","coordinates":[-0.40215831893051018,39.465290796222597]},"properties":{"gid":33023,"descripcion":"HEMEROTECA MUNICIPAL","tipo":2}},{"type":"Feature","id":33024,"geometry":{"type":"Point","coordinates":[-0.3969669856283034,39.46576328194319]},"properties":{"gid":33024,"descripcion":"C.M.A.P.M.  \"VIRGEN DE LOS DESAMPARADOS\"","tipo":2}},{"type":"Feature","id":33025,"geometry":{"type":"Point","coordinates":[-0.4103335719946849,39.471749352864542]},"properties":{"gid":33025,"descripcion":"PUNT DE TROBADA FAMILIAR","tipo":2}},{"type":"Feature","id":33026,"geometry":{"type":"Point","coordinates":[-0.38049547896025965,39.477873243886556]},"properties":{"gid":33026,"descripcion":"Mercat Municipal de Mossen Sorell","tipo":2}},{"type":"Feature","id":34279,"geometry":{"type":"Point","coordinates":[-0.3803281904957842,39.480867181466451]},"properties":{"gid":34279,"descripcion":"Centre Municipal de Joventut Ciutat Vella","tipo":2}},{"type":"Feature","id":34280,"geometry":{"type":"Point","coordinates":[-0.37496444326655265,39.459268245531661]},"properties":{"gid":34280,"descripcion":"C.M.A.P.M. \"RUZAFA\"","tipo":2}},{"type":"Feature","id":34281,"geometry":{"type":"Point","coordinates":[-0.38391236339558044,39.467543663961038]},"properties":{"gid":34281,"descripcion":"C.M.A.P.M. \"ARRANCAPINS\"","tipo":2}},{"type":"Feature","id":34282,"geometry":{"type":"Point","coordinates":[-0.39574677367068106,39.44928215204979]},"properties":{"gid":34282,"descripcion":"CEMENTERI MUNICIPAL GENERAL","tipo":2}},{"type":"Feature","id":34278,"geometry":{"type":"Point","coordinates":[-0.4072968744145215,39.493026197751938]},"properties":{"gid":34278,"descripcion":"C.M.A.P.M. \"BENIFERRI\"","tipo":2}},{"type":"Feature","id":34283,"geometry":{"type":"Point","coordinates":[-0.33895782238007344,39.474463848016605]},"properties":{"gid":34283,"descripcion":"CEMENTERI MUNICIPAL EL CABANYAL","tipo":4}},{"type":"Feature","id":33318,"geometry":{"type":"Point","coordinates":[-0.4072217730784593,39.466559994682534]},"properties":{"gid":33318,"descripcion":"C.M.A.P.M. \"FUENSANTA\"","tipo":2}},{"type":"Feature","id":33319,"geometry":{"type":"Point","coordinates":[-0.41267470344358315,39.46765122088658]},"properties":{"gid":33319,"descripcion":"C.M.A.P.M. \"LA LLUM\"","tipo":2}},{"type":"Feature","id":33320,"geometry":{"type":"Point","coordinates":[-0.38599477070334004,39.460314623209825]},"properties":{"gid":33320,"descripcion":"C.M.A.P.M.. \"GIORGETA\"","tipo":2}},{"type":"Feature","id":33321,"geometry":{"type":"Point","coordinates":[-0.39065208944637253,39.457885209777452]},"properties":{"gid":33321,"descripcion":"C.M.A.P.M. \"PADRE JOFRE\"","tipo":2}},{"type":"Feature","id":34284,"geometry":{"type":"Point","coordinates":[-0.33793161780674019,39.421473989229895]},"properties":{"gid":34284,"descripcion":"C.M.A.P.M. \"PINEDO\"","tipo":2}},{"type":"Feature","id":34285,"geometry":{"type":"Point","coordinates":[-0.3249273438848243,39.35751870070699]},"properties":{"gid":34285,"descripcion":"COMPLEJO \"DEVESA-ALBUFERA\"","tipo":2}},{"type":"Feature","id":34294,"geometry":{"type":"Point","coordinates":[-0.37989291923435631,39.478588879704709]},"properties":{"gid":34294,"descripcion":"ONDIS","tipo":2}},{"type":"Feature","id":32630,"geometry":{"type":"Point","coordinates":[-0.32921979205512097,39.480405385556082]},"properties":{"gid":32630,"descripcion":"WiFi4EU_Centre Municipal de Joventut Malvarrosa","tipo":2}},{"type":"Feature","id":32631,"geometry":{"type":"Point","coordinates":[-0.3696474226032061,39.497340068828436]},"properties":{"gid":32631,"descripcion":"WiFi4EU_Biblioteca Alqueria Albors","tipo":2}},{"type":"Feature","id":32632,"geometry":{"type":"Point","coordinates":[-0.32871856708005753,39.468801301645641]},"properties":{"gid":32632,"descripcion":"WiFi4EU_Centre Servicis Socials Cabanyal","tipo":2}},{"type":"Feature","id":31150,"geometry":{"type":"Point","coordinates":[-0.35827009365891133,39.493296729613739]},"properties":{"gid":31150,"descripcion":"WiFi4EU_PLV Benimaclet","tipo":2}},{"type":"Feature","id":31235,"geometry":{"type":"Point","coordinates":[-0.328789397884929,39.463308373169923]},"properties":{"gid":31235,"descripcion":"WiFi4EU_PLV Maritim","tipo":2}},{"type":"Feature","id":32326,"geometry":{"type":"Point","coordinates":[-0.37837994494938876,39.474294497456668]},"properties":{"gid":32326,"descripcion":"WiFi4EU_Llotja","tipo":2}},{"type":"Feature","id":32312,"geometry":{"type":"Point","coordinates":[-0.39532952837664892,39.454972859544249]},"properties":{"gid":32312,"descripcion":"WiFi4EU_Centre Ocupacional Juan de Garay","tipo":2}},{"type":"Feature","id":31189,"geometry":{"type":"Point","coordinates":[-0.37400179499620856,39.475967501605119]},"properties":{"gid":31189,"descripcion":"WiFi4EU_Museu de la Ciutat","tipo":2}},{"type":"Feature","id":31190,"geometry":{"type":"Point","coordinates":[-0.3858350104266054,39.528876188347354]},"properties":{"gid":31190,"descripcion":"WiFi4EU_Alcaldía Benifaraig","tipo":2}},{"type":"Feature","id":31193,"geometry":{"type":"Point","coordinates":[-0.38465229850264154,39.476776550676647]},"properties":{"gid":31193,"descripcion":"BIBLIOTECA MUNICIPAL MARÍA BENEYTO","tipo":2}},{"type":"Feature","id":31194,"geometry":{"type":"Point","coordinates":[-0.31762274462525109,39.309386258086811]},"properties":{"gid":31194,"descripcion":"WiFi4EU_Alcaldía El Palmar","tipo":2}},{"type":"Feature","id":31195,"geometry":{"type":"Point","coordinates":[-0.42351481175986816,39.501358643639847]},"properties":{"gid":31195,"descripcion":"BIBLIOTECA PÚBLICA MUNICIPAL TEODORO LLORENTE","tipo":2}},{"type":"Feature","id":31197,"geometry":{"type":"Point","coordinates":[-0.36941199343435599,39.460958554563021]},"properties":{"gid":31197,"descripcion":"WiFi4EU_Junta Municipal Ruzafa","tipo":2}},{"type":"Feature","id":31198,"geometry":{"type":"Point","coordinates":[-0.38009171822432419,39.476299404161921]},"properties":{"gid":31198,"descripcion":"WiFi4EU_Galería del Tossal","tipo":4}},{"type":"Feature","id":31199,"geometry":{"type":"Point","coordinates":[-0.36266309582570599,39.47347491308993]},"properties":{"gid":31199,"descripcion":"BIBLIOTECA MUNICIPAL PALAU DE L'EXPOSICIÓ","tipo":2}},{"type":"Feature","id":31201,"geometry":{"type":"Point","coordinates":[-0.36211931536429431,39.428030793145609]},"properties":{"gid":31201,"descripcion":"WiFi4EU_Alcaldía Castellar-l'Oliveral","tipo":2}},{"type":"Feature","id":31202,"geometry":{"type":"Point","coordinates":[-0.35642759738660629,39.486487464545128]},"properties":{"gid":31202,"descripcion":"Centre Municipal de Joventut Benimaclet","tipo":2}},{"type":"Feature","id":31203,"geometry":{"type":"Point","coordinates":[-0.32418313945836225,39.467718384096131]},"properties":{"gid":31203,"descripcion":"WiFi4EU_Posta Sanitaria","tipo":2}},{"type":"Feature","id":31204,"geometry":{"type":"Point","coordinates":[-0.39251879598000289,39.499940697417635]},"properties":{"gid":31204,"descripcion":"BIBLIOTECA MUNICIPAL VICENT TORTOSA I BIOSCA","tipo":2}},{"type":"Feature","id":31205,"geometry":{"type":"Point","coordinates":[-0.35093757186364755,39.472277938315486]},"properties":{"gid":31205,"descripcion":"BIBLIOTECA MUNICIPAL TOMÀS VICENT TOSCA","tipo":2}},{"type":"Feature","id":31206,"geometry":{"type":"Point","coordinates":[-0.37039175487423714,39.497415687396916]},"properties":{"gid":31206,"descripcion":"Centre Municipal de Joventut Orriols","tipo":2}},{"type":"Feature","id":31207,"geometry":{"type":"Point","coordinates":[-0.38216131071124437,39.492433778344754]},"properties":{"gid":31207,"descripcion":"BIBLIOTECA MUNICIPAL SOR ISABEL DE VILLENA","tipo":2}},{"type":"Feature","id":31208,"geometry":{"type":"Point","coordinates":[-0.36025359871424306,39.45632297887704]},"properties":{"gid":31208,"descripcion":"BIBLIOTECA MUNICIPAL JOAQUIM MARTÍ I GADEA","tipo":2}},{"type":"Feature","id":31209,"geometry":{"type":"Point","coordinates":[-0.390760158258807,39.515207145724723]},"properties":{"gid":31209,"descripcion":"WiFi4EU_Alcaldía Borbotó","tipo":2}},{"type":"Feature","id":31211,"geometry":{"type":"Point","coordinates":[-0.34087857096832919,39.424467200998144]},"properties":{"gid":31211,"descripcion":"WiFi4EU_Alcaldía Pinedo","tipo":2}},{"type":"Feature","id":31214,"geometry":{"type":"Point","coordinates":[-0.39617145339419618,39.496226875199433]},"properties":{"gid":31214,"descripcion":"CENTRE MUNICIPAL DE JOVENTUT BENICALAP","tipo":2}},{"type":"Feature","id":31215,"geometry":{"type":"Point","coordinates":[-0.38391421925076818,39.50428141089413]},"properties":{"gid":31215,"descripcion":"WiFi4EU_Exterior Poble Nou","tipo":2}},{"type":"Feature","id":31216,"geometry":{"type":"Point","coordinates":[-0.33389300521064191,39.544214278178899]},"properties":{"gid":31216,"descripcion":"WiFi4EU_Plaça Mahuella","tipo":2}},{"type":"Feature","id":31217,"geometry":{"type":"Point","coordinates":[-0.29720987643198915,39.307835260406051]},"properties":{"gid":31217,"descripcion":"WiFi4EU_Plaça El Perellonet","tipo":2}},{"type":"Feature","id":31218,"geometry":{"type":"Point","coordinates":[-0.33331230352465196,39.461529379059563]},"properties":{"gid":31218,"descripcion":"WiFi4EU_Atarazanas","tipo":4}},{"type":"Feature","id":31219,"geometry":{"type":"Point","coordinates":[-0.36835082536433672,39.479332617564701]},"properties":{"gid":31219,"descripcion":"WiFi4EU_Jardins de Vivers","tipo":2}},{"type":"Feature","id":31220,"geometry":{"type":"Point","coordinates":[-0.3706052349226408,39.496253956783974]},"properties":{"gid":31220,"descripcion":"WiFi4EU_Centre Municipal de Servicis Socials Salvador Allende","tipo":2}},{"type":"Feature","id":32967,"geometry":{"type":"Point","coordinates":[-0.36891577807907527,39.475624726753999]},"properties":{"gid":32967,"descripcion":"WiFi4EU_Riu Turia","tipo":2}},{"type":"Feature","id":31222,"geometry":{"type":"Point","coordinates":[-0.29731929064969043,39.3076902440853]},"properties":{"gid":31222,"descripcion":"WiFi4EU_Alcaldía El Perellonet","tipo":2}},{"type":"Feature","id":31223,"geometry":{"type":"Point","coordinates":[-0.32591346827510059,39.482668049057729]},"properties":{"gid":31223,"descripcion":"WiFi4EU_Museu Blasco Ibañez","tipo":2}},{"type":"Feature","id":31225,"geometry":{"type":"Point","coordinates":[-0.38001523439702894,39.477093989647592]},"properties":{"gid":31225,"descripcion":"WiFi4EU_Parc de Bombers Centre Històric","tipo":2}},{"type":"Feature","id":31227,"geometry":{"type":"Point","coordinates":[-0.38907849802199279,39.459835483105849]},"properties":{"gid":31227,"descripcion":"WiFi4EU_Junta Municipal Patraix","tipo":2}},{"type":"Feature","id":31228,"geometry":{"type":"Point","coordinates":[-0.40095991066955528,39.465649761672466]},"properties":{"gid":31228,"descripcion":"BIBLIOTECA DEPORTIVA MUNICIPAL","tipo":2}},{"type":"Feature","id":31229,"geometry":{"type":"Point","coordinates":[-0.37707767564763661,39.460891007627872]},"properties":{"gid":31229,"descripcion":"Centre Municipal de Joventut Russafa","tipo":2}},{"type":"Feature","id":31230,"geometry":{"type":"Point","coordinates":[-0.37186403347592817,39.4631036471567]},"properties":{"gid":31230,"descripcion":"WiFi4EU_Plaça San Valero","tipo":4}},{"type":"Feature","id":32966,"geometry":{"type":"Point","coordinates":[-0.36222098380555007,39.467988731286489]},"properties":{"gid":32966,"descripcion":"WiFi4EU_Riu Turia","tipo":2}},{"type":"Feature","id":31232,"geometry":{"type":"Point","coordinates":[-0.35860501394922101,39.520923775699785]},"properties":{"gid":31232,"descripcion":"WiFi4EU_Alcaldía Cases de Bàrcena","tipo":2}},{"type":"Feature","id":31234,"geometry":{"type":"Point","coordinates":[-0.39267338040156341,39.447240660950392]},"properties":{"gid":31234,"descripcion":"BIBLIOTECA LA RAMBLETA","tipo":2}},{"type":"Feature","id":31236,"geometry":{"type":"Point","coordinates":[-0.3756630699547493,39.475577751935596]},"properties":{"gid":31236,"descripcion":"WiFi4EU_Junta Municipal Ciutat Vella","tipo":2}},{"type":"Feature","id":31233,"geometry":{"type":"Point","coordinates":[-0.34513497487918549,39.461309889380949]},"properties":{"gid":31233,"descripcion":"BIBLIOTECA MUNICIPAL GREGORI MAYANS I SÍSCAR","tipo":2}},{"type":"Feature","id":31087,"geometry":{"type":"Point","coordinates":[-0.35392296550408009,39.481734907926587]},"properties":{"gid":31087,"descripcion":"WiFi4EU_Parc de Bombers Nord","tipo":2}},{"type":"Feature","id":31352,"geometry":{"type":"Point","coordinates":[-0.39290385437390102,39.446952406312455]},"properties":{"gid":31352,"descripcion":"WiFi4EU_LA RAMBLETA","tipo":2}},{"type":"Feature","id":31670,"geometry":{"type":"Point","coordinates":[-0.37165031633321299,39.474715935414743]},"properties":{"gid":31670,"descripcion":"WiFi4EU_Espai Dones","tipo":2}},{"type":"Feature","id":31671,"geometry":{"type":"Point","coordinates":[-0.38029601267249691,39.479003383154144]},"properties":{"gid":31671,"descripcion":"WiFi4EU_Centre d'Atenció a Persones Sense Sostre","tipo":2}},{"type":"Feature","id":31687,"geometry":{"type":"Point","coordinates":[-0.38027991927496829,39.479313925459294]},"properties":{"gid":31687,"descripcion":"WiFi4EU_Oficina Sociosanitària-CAST","tipo":2}},{"type":"Feature","id":31163,"geometry":{"type":"Point","coordinates":[-0.39402273339245025,39.462567213153399]},"properties":{"gid":31163,"descripcion":"WiFi4EU_Centre Municipal de Joventut Patraix","tipo":2}},{"type":"Feature","id":31990,"geometry":{"type":"Point","coordinates":[-0.39401993987376249,39.462640136460514]},"properties":{"gid":31990,"descripcion":"WiFi4EU_Centre Municipal de Serveis Socials Patraix","tipo":2}},{"type":"Feature","id":31156,"geometry":{"type":"Point","coordinates":[-0.38039942769358459,39.478519331588124]},"properties":{"gid":31156,"descripcion":"WiFi4EU_Centre d'Atenció a la Inmigració","tipo":2}},{"type":"Feature","id":31212,"geometry":{"type":"Point","coordinates":[-0.37973553186079945,39.477723150779404]},"properties":{"gid":31212,"descripcion":"WiFi4EU_Centre Municipal de Serveis Socials Ciutat Vella","tipo":2}},{"type":"Feature","id":31351,"geometry":{"type":"Point","coordinates":[-0.33327327042526383,39.44852104157038]},"properties":{"gid":31351,"descripcion":"WiFi4EU_Centre Municipal de Serveis Socials Natzaret","tipo":2}},{"type":"Feature","id":31185,"geometry":{"type":"Point","coordinates":[-0.34518940142200932,39.461192530512527]},"properties":{"gid":31185,"descripcion":"WiFi4EU_Centre Municipal de Serveis Socials Trafalgar","tipo":2}},{"type":"Feature","id":32968,"geometry":{"type":"Point","coordinates":[-0.37134049501511857,39.478208517971588]},"properties":{"gid":32968,"descripcion":"WiFi4EU_Riu Turia","tipo":2}},{"type":"Feature","id":32969,"geometry":{"type":"Point","coordinates":[-0.37215588615064837,39.479450691218524]},"properties":{"gid":32969,"descripcion":"WiFi4EU_Riu Turia","tipo":2}},{"type":"Feature","id":32970,"geometry":{"type":"Point","coordinates":[-0.37498829843318277,39.48110688728859]},"properties":{"gid":32970,"descripcion":"WiFi4EU_Riu Turia","tipo":2}},{"type":"Feature","id":32971,"geometry":{"type":"Point","coordinates":[-0.37943003660172969,39.482663676374877]},"properties":{"gid":32971,"descripcion":"WiFi4EU_Riu Turia","tipo":2}},{"type":"Feature","id":31182,"geometry":{"type":"Point","coordinates":[-0.34413238306492266,39.44290406511999]},"properties":{"gid":31182,"descripcion":"WiFi4EU_Alcaldía La Punta","tipo":2}},{"type":"Feature","id":34613,"geometry":{"type":"Point","coordinates":[-0.32285020558306998,39.464845511487198]},"properties":{"gid":34613,"descripcion":"WiFi4EU_Paseu Marítim","tipo":4}},{"type":"Feature","id":34614,"geometry":{"type":"Point","coordinates":[-0.32315061389431582,39.467247488245661]},"properties":{"gid":34614,"descripcion":"WiFi4EU_Paseu Marítim","tipo":4}},{"type":"Feature","id":34615,"geometry":{"type":"Point","coordinates":[-0.32950625957211976,39.465825254256998]},"properties":{"gid":34615,"descripcion":"JUNTA MUNICIPAL MARITIM","tipo":2}},{"type":"Feature","id":34616,"geometry":{"type":"Point","coordinates":[-0.32293603626805101,39.465806311976763]},"properties":{"gid":34616,"descripcion":"WiFi4EU_Paseu Marítim","tipo":4}},{"type":"Feature","id":34617,"geometry":{"type":"Point","coordinates":[-0.33191656242370743,39.46914034965328]},"properties":{"gid":34617,"descripcion":"L'ESCORXADOR","tipo":2}},{"type":"Feature","id":34618,"geometry":{"type":"Point","coordinates":[-0.33208654515667357,39.464599403641827]},"properties":{"gid":34618,"descripcion":"TEATRO MUSICAL","tipo":2}},{"type":"Feature","id":34619,"geometry":{"type":"Point","coordinates":[-0.32315061388754479,39.467893522883358]},"properties":{"gid":34619,"descripcion":"WiFi4EU_Paseu Marítim","tipo":4}},{"type":"Feature","id":34620,"geometry":{"type":"Point","coordinates":[-0.32272146005820002,39.4638681325752]},"properties":{"gid":34620,"descripcion":"WiFi4EU_Paseu Marítim","tipo":4}},{"type":"Feature","id":32950,"geometry":{"type":"Point","coordinates":[-0.32830984258517909,39.466880945335831]},"properties":{"gid":32950,"descripcion":"C.M.A.P.M. \"CABANYAL-CANYAMELAR\"","tipo":2}},{"type":"Feature","id":34621,"geometry":{"type":"Point","coordinates":[-0.36664968260088376,39.489827354984975]},"properties":{"gid":34621,"descripcion":"ESCOLA INFANTIL DIPUTADA CLARA CAMPOAMOR","tipo":2}},{"type":"Feature","id":34622,"geometry":{"type":"Point","coordinates":[-0.39959487429559232,39.468307068416848]},"properties":{"gid":34622,"descripcion":"CENTRO ATENCION EMERGENCIAS SOCIALES","tipo":2}},{"type":"Feature","id":34623,"geometry":{"type":"Point","coordinates":[-0.33067522866934568,39.469007080248012]},"properties":{"gid":34623,"descripcion":"CMJ CABANYAL","tipo":2}},{"type":"Feature","id":34624,"geometry":{"type":"Point","coordinates":[-0.39914895794836736,39.476958219994707]},"properties":{"gid":34624,"descripcion":"CMAPM SANT PAU","tipo":2}},{"type":"Feature","id":34625,"geometry":{"type":"Point","coordinates":[-0.2978108787769827,39.307987277593774]},"properties":{"gid":34625,"descripcion":"CMAPM_PERELLONET","tipo":2}},{"type":"Feature","id":34628,"geometry":{"type":"Point","coordinates":[-0.33315985246681923,39.468143587353097]},"properties":{"gid":34628,"descripcion":"Mercado Cabanyal","tipo":2}},{"type":"Feature","id":34629,"geometry":{"type":"Point","coordinates":[-0.34391299648880169,39.456760426956592]},"properties":{"gid":34629,"descripcion":"Laboratorio Municipal","tipo":2}},{"type":"Feature","id":34630,"geometry":{"type":"Point","coordinates":[-0.34098766631093425,39.469589125944722]},"properties":{"gid":34630,"descripcion":"WIFI COLEGIO SANTIAGO GRISOLIA","tipo":2}},{"type":"Feature","id":34631,"geometry":{"type":"Point","coordinates":[-0.35611496253266661,39.486957125063036]},"properties":{"gid":34631,"descripcion":"WIFI COLEGIO MUNICIPAL BENIMACLET","tipo":2}},{"type":"Feature","id":34632,"geometry":{"type":"Point","coordinates":[-0.37618322033430468,39.45329215681641]},"properties":{"gid":34632,"descripcion":"WIFI COLEGIO FERNANDO DE LOS RIOS","tipo":2}},{"type":"Feature","id":34633,"geometry":{"type":"Point","coordinates":[-0.3749121138712313,39.432297209081305]},"properties":{"gid":34633,"descripcion":"CMAPM FORN D'ALCEDO","tipo":2}},{"type":"Feature","id":34634,"geometry":{"type":"Point","coordinates":[-0.31741009355336663,39.313089345237408]},"properties":{"gid":34634,"descripcion":"BIBLIOTECA EL PALMAR","tipo":2}},{"type":"Feature","id":34635,"geometry":{"type":"Point","coordinates":[-0.40991131815420795,39.472199482701868]},"properties":{"gid":34635,"descripcion":"CENTRO DÍA PERSONAS MAYORES DEPENDIENTES ARNICHES","tipo":2}},{"type":"Feature","id":34636,"geometry":{"type":"Point","coordinates":[-0.36836997559285478,39.46895159830801]},"properties":{"gid":34636,"descripcion":"MERCAT COLON","tipo":2}},{"type":"Feature","id":34637,"geometry":{"type":"Point","coordinates":[-0.39705026519268227,39.481215616484498]},"properties":{"gid":34637,"descripcion":"CMAPM CAMPANAR","tipo":2}},{"type":"Feature","id":34638,"geometry":{"type":"Point","coordinates":[-0.3989006825904175,39.470547106180554]},"properties":{"gid":34638,"descripcion":"CMAPM NOU MOLES","tipo":2}},{"type":"Feature","id":34639,"geometry":{"type":"Point","coordinates":[-0.37158776444071301,39.462380451916886]},"properties":{"gid":34639,"descripcion":"MERCADO RUZAFA","tipo":2}},{"type":"Feature","id":34640,"geometry":{"type":"Point","coordinates":[-0.39493810757027525,39.500307425575741]},"properties":{"gid":34640,"descripcion":"ALQUERIA DEL MORO","tipo":2}},{"type":"Feature","id":34641,"geometry":{"type":"Point","coordinates":[-0.32946253675405918,39.479768050153105]},"properties":{"gid":34641,"descripcion":"CMAPM MALVARROSA","tipo":2}},{"type":"Feature","id":34642,"geometry":{"type":"Point","coordinates":[-0.3534161403354853,39.469836409772036]},"properties":{"gid":34642,"descripcion":"MERCADO ALGIRÓS","tipo":2}},{"type":"Feature","id":34643,"geometry":{"type":"Point","coordinates":[-0.3329191263923385,39.443572345184471]},"properties":{"gid":34643,"descripcion":"CENTRO JUVENTUD NAZARET","tipo":2}},{"type":"Feature","id":34644,"geometry":{"type":"Point","coordinates":[-0.37054758054185621,39.496226581606081]},"properties":{"gid":34644,"descripcion":"CMAPM ORRIOLS","tipo":2}},{"type":"Feature","id":34645,"geometry":{"type":"Point","coordinates":[-0.39103199957348583,39.515509034518665]},"properties":{"gid":34645,"descripcion":"CMAPM_BORBOTO","tipo":2}},{"type":"Feature","id":34646,"geometry":{"type":"Point","coordinates":[-0.33187633473931899,39.470398331953859]},"properties":{"gid":34646,"descripcion":"CENTRO CIVICO CABAÑAL","tipo":2}},{"type":"Feature","id":34647,"geometry":{"type":"Point","coordinates":[-0.39253265120443537,39.45514522326787]},"properties":{"gid":34647,"descripcion":"Centro Cívico Favara","tipo":2}},{"type":"Feature","id":34648,"geometry":{"type":"Point","coordinates":[-0.34225773232635176,39.465464685192643]},"properties":{"gid":34648,"descripcion":"CENTRO CIVICO AIORA","tipo":2}}]}